[
    {
        "CCSDS_OMM_VERS": "3.0",
        "COMMENT": "GENERATED VIA SPACE-TRACK.ORG API",
        "CREATION_DATE": "2025-04-14T03:05:54",
        "ORIGINATOR": "18 SPCS",
        "OBJECT_NAME": "BEIDOU 6",
        "OBJECT_ID": "2010-057A",
        "CENTER_NAME": "EARTH",
        "REF_FRAME": "TEME",
        "TIME_SYSTEM": "UTC",
        "MEAN_ELEMENT_THEORY": "SGP4",
        "EPOCH": "2025-04-13T20:27:34.134624",
        "MEAN_MOTION": "1.00271250",
        "ECCENTRICITY": "0.00055360",
        "INCLINATION": "2.5816",
        "RA_OF_ASC_NODE": "70.4401",
        "ARG_OF_PERICENTER": "207.5522",
        "MEAN_ANOMALY": "31.1228",
        "EPHEMERIS_TYPE": "0",
        "CLASSIFICATION_TYPE": "U",
        "NORAD_CAT_ID": "37210",
        "ELEMENT_SET_NO": "999",
        "REV_AT_EPOCH": "5298",
        "BSTAR": "0.00000000000000",
        "MEAN_MOTION_DOT": "-0.00000104",
        "MEAN_MOTION_DDOT": "0.0000000000000",
        "SEMIMAJOR_AXIS": "42164.882",
        "PERIOD": "1436.105",
        "APOAPSIS": "35810.089",
        "PERIAPSIS": "35763.404",
        "OBJECT_TYPE": "PAYLOAD",
        "RCS_SIZE": "LARGE",
        "COUNTRY_CODE": "PRC",
        "LAUNCH_DATE": "2010-10-31",
        "SITE": "XSC",
        "DECAY_DATE": null,
        "FILE": "4701263",
        "GP_ID": "285535543",
        "TLE_LINE0": "0 BEIDOU 6",
        "TLE_LINE1": "1 37210U 10057A   25103.85247841 -.00000104  00000-0  00000-0 0  9992",
        "TLE_LINE2": "2 37210   2.5816  70.4401 0005536 207.5522  31.1228  1.00271250 52984"
    }
]